KUIPER-00008            
1 63724U 25088A   25304.26515057  .00006683  00000+0  55712-3 0  9995
2 63724  51.8916 317.0596 0011690  30.0659 330.0980 14.99618918 28644
KUIPER-00009            
1 63725U 25088B   25304.25849070  .00003175  00000+0  44290-3 0  9992
2 63725  51.9018 318.9326 0013124  32.3845 327.7920 14.80153209 28617
KUIPER-00010            
1 63726U 25088C   25304.25302505  .00009612  00000+0  12865-2 0  9994
2 63726  51.9020 295.4477 0011577  76.0516 284.1733 14.79950499 28563
KUIPER-00011            
1 63727U 25088D   25303.26565713  .00002131  00000+0  30840-3 0  9990
2 63727  51.9012 307.3960 0014234  45.7630 314.4498 14.79946990 28441
KUIPER-00012            
1 63728U 25088E   25304.33336806  .00018318  00000+0  91197-3 0  9995
2 63728  51.8698 289.4241 0011450  46.1218 161.3295 15.17583158  2742
KUIPER-00013            
1 63729U 25088F   25304.25974320  .00004156  00000+0  57419-3 0  9990
2 63729  51.9024 320.4195 0007913 325.2332  34.8112 14.79901667 28407
KUIPER-00014            
1 63730U 25088G   25304.25819622  .00017039  00000+0  22570-2 0  9998
2 63730  51.9031 321.3946 0008982  31.1057 329.0435 14.79937215 28208
KUIPER-00015            
1 63731U 25088H   25304.28318384  .00003693  00000+0  49422-3 0  9998
2 63731  51.9006 332.8249 0010285  12.1013 348.0195 14.81532921 28509
