<?xml version="1.0" encoding="UTF-8"?>
<ndm xmlns:xsi="http://www.w3.org/2001/XMLSchema-instance" xsi:noNamespaceSchemaLocation="https://sanaregistry.org/r/ndmxml_unqualified/ndmxml-2.0.0-master-2.0.xsd">
<omm id="CCSDS_OMM_VERS" version="2.0">
<header><CREATION_DATE/><ORIGINATOR/></header><body><segment><metadata><OBJECT_NAME>KUIPER-00008</OBJECT_NAME><OBJECT_ID>2025-088A</OBJECT_ID><CENTER_NAME>EARTH</CENTER_NAME><REF_FRAME>TEME</REF_FRAME><TIME_SYSTEM>UTC</TIME_SYSTEM><MEAN_ELEMENT_THEORY>SGP4</MEAN_ELEMENT_THEORY></metadata><data><meanElements><EPOCH>2025-10-31T06:21:49.009248</EPOCH><MEAN_MOTION>14.99618918</MEAN_MOTION><ECCENTRICITY>.00116901</ECCENTRICITY><INCLINATION>51.8916</INCLINATION><RA_OF_ASC_NODE>317.0596</RA_OF_ASC_NODE><ARG_OF_PERICENTER>30.0659</ARG_OF_PERICENTER><MEAN_ANOMALY>330.0980</MEAN_ANOMALY></meanElements><tleParameters><EPHEMERIS_TYPE>0</EPHEMERIS_TYPE><CLASSIFICATION_TYPE>U</CLASSIFICATION_TYPE><NORAD_CAT_ID>63724</NORAD_CAT_ID><ELEMENT_SET_NO>999</ELEMENT_SET_NO><REV_AT_EPOCH>2864</REV_AT_EPOCH><BSTAR>.5571221E-3</BSTAR><MEAN_MOTION_DOT>.6683E-4</MEAN_MOTION_DOT><MEAN_MOTION_DDOT>0</MEAN_MOTION_DDOT></tleParameters></data></segment></body></omm>
<omm id="CCSDS_OMM_VERS" version="2.0">
<header><CREATION_DATE/><ORIGINATOR/></header><body><segment><metadata><OBJECT_NAME>KUIPER-00009</OBJECT_NAME><OBJECT_ID>2025-088B</OBJECT_ID><CENTER_NAME>EARTH</CENTER_NAME><REF_FRAME>TEME</REF_FRAME><TIME_SYSTEM>UTC</TIME_SYSTEM><MEAN_ELEMENT_THEORY>SGP4</MEAN_ELEMENT_THEORY></metadata><data><meanElements><EPOCH>2025-10-31T06:12:13.596480</EPOCH><MEAN_MOTION>14.80153209</MEAN_MOTION><ECCENTRICITY>.00131247</ECCENTRICITY><INCLINATION>51.9018</INCLINATION><RA_OF_ASC_NODE>318.9326</RA_OF_ASC_NODE><ARG_OF_PERICENTER>32.3845</ARG_OF_PERICENTER><MEAN_ANOMALY>327.7920</MEAN_ANOMALY></meanElements><tleParameters><EPHEMERIS_TYPE>0</EPHEMERIS_TYPE><CLASSIFICATION_TYPE>U</CLASSIFICATION_TYPE><NORAD_CAT_ID>63725</NORAD_CAT_ID><ELEMENT_SET_NO>999</ELEMENT_SET_NO><REV_AT_EPOCH>2861</REV_AT_EPOCH><BSTAR>.44290123E-3</BSTAR><MEAN_MOTION_DOT>.3175E-4</MEAN_MOTION_DOT><MEAN_MOTION_DDOT>0</MEAN_MOTION_DDOT></tleParameters></data></segment></body></omm>
<omm id="CCSDS_OMM_VERS" version="2.0">
<header><CREATION_DATE/><ORIGINATOR/></header><body><segment><metadata><OBJECT_NAME>KUIPER-00010</OBJECT_NAME><OBJECT_ID>2025-088C</OBJECT_ID><CENTER_NAME>EARTH</CENTER_NAME><REF_FRAME>TEME</REF_FRAME><TIME_SYSTEM>UTC</TIME_SYSTEM><MEAN_ELEMENT_THEORY>SGP4</MEAN_ELEMENT_THEORY></metadata><data><meanElements><EPOCH>2025-10-31T06:04:21.364320</EPOCH><MEAN_MOTION>14.79950499</MEAN_MOTION><ECCENTRICITY>.00115773</ECCENTRICITY><INCLINATION>51.9020</INCLINATION><RA_OF_ASC_NODE>295.4477</RA_OF_ASC_NODE><ARG_OF_PERICENTER>76.0516</ARG_OF_PERICENTER><MEAN_ANOMALY>284.1733</MEAN_ANOMALY></meanElements><tleParameters><EPHEMERIS_TYPE>0</EPHEMERIS_TYPE><CLASSIFICATION_TYPE>U</CLASSIFICATION_TYPE><NORAD_CAT_ID>63726</NORAD_CAT_ID><ELEMENT_SET_NO>999</ELEMENT_SET_NO><REV_AT_EPOCH>2856</REV_AT_EPOCH><BSTAR>.12864958E-2</BSTAR><MEAN_MOTION_DOT>.9612E-4</MEAN_MOTION_DOT><MEAN_MOTION_DDOT>0</MEAN_MOTION_DDOT></tleParameters></data></segment></body></omm>
<omm id="CCSDS_OMM_VERS" version="2.0">
<header><CREATION_DATE/><ORIGINATOR/></header><body><segment><metadata><OBJECT_NAME>KUIPER-00011</OBJECT_NAME><OBJECT_ID>2025-088D</OBJECT_ID><CENTER_NAME>EARTH</CENTER_NAME><REF_FRAME>TEME</REF_FRAME><TIME_SYSTEM>UTC</TIME_SYSTEM><MEAN_ELEMENT_THEORY>SGP4</MEAN_ELEMENT_THEORY></metadata><data><meanElements><EPOCH>2025-10-30T06:22:32.776032</EPOCH><MEAN_MOTION>14.79946990</MEAN_MOTION><ECCENTRICITY>.00142346</ECCENTRICITY><INCLINATION>51.9012</INCLINATION><RA_OF_ASC_NODE>307.3960</RA_OF_ASC_NODE><ARG_OF_PERICENTER>45.7630</ARG_OF_PERICENTER><MEAN_ANOMALY>314.4498</MEAN_ANOMALY></meanElements><tleParameters><EPHEMERIS_TYPE>0</EPHEMERIS_TYPE><CLASSIFICATION_TYPE>U</CLASSIFICATION_TYPE><NORAD_CAT_ID>63727</NORAD_CAT_ID><ELEMENT_SET_NO>999</ELEMENT_SET_NO><REV_AT_EPOCH>2844</REV_AT_EPOCH><BSTAR>.30840379E-3</BSTAR><MEAN_MOTION_DOT>.2131E-4</MEAN_MOTION_DOT><MEAN_MOTION_DDOT>0</MEAN_MOTION_DDOT></tleParameters></data></segment></body></omm>
<omm id="CCSDS_OMM_VERS" version="2.0">
<header><CREATION_DATE/><ORIGINATOR/></header><body><segment><metadata><OBJECT_NAME>KUIPER-00012</OBJECT_NAME><OBJECT_ID>2025-088E</OBJECT_ID><CENTER_NAME>EARTH</CENTER_NAME><REF_FRAME>TEME</REF_FRAME><TIME_SYSTEM>UTC</TIME_SYSTEM><MEAN_ELEMENT_THEORY>SGP4</MEAN_ELEMENT_THEORY></metadata><data><meanElements><EPOCH>2025-10-31T08:00:03.000384</EPOCH><MEAN_MOTION>15.17583158</MEAN_MOTION><ECCENTRICITY>.001145</ECCENTRICITY><INCLINATION>51.8698</INCLINATION><RA_OF_ASC_NODE>289.4241</RA_OF_ASC_NODE><ARG_OF_PERICENTER>46.1218</ARG_OF_PERICENTER><MEAN_ANOMALY>161.3295</MEAN_ANOMALY></meanElements><tleParameters><EPHEMERIS_TYPE>0</EPHEMERIS_TYPE><CLASSIFICATION_TYPE>U</CLASSIFICATION_TYPE><NORAD_CAT_ID>63728</NORAD_CAT_ID><ELEMENT_SET_NO>999</ELEMENT_SET_NO><REV_AT_EPOCH>274</REV_AT_EPOCH><BSTAR>.91197017E-3</BSTAR><MEAN_MOTION_DOT>.18318E-3</MEAN_MOTION_DOT><MEAN_MOTION_DDOT>0</MEAN_MOTION_DDOT></tleParameters></data></segment></body></omm>
<omm id="CCSDS_OMM_VERS" version="2.0">
<header><CREATION_DATE/><ORIGINATOR/></header><body><segment><metadata><OBJECT_NAME>KUIPER-00013</OBJECT_NAME><OBJECT_ID>2025-088F</OBJECT_ID><CENTER_NAME>EARTH</CENTER_NAME><REF_FRAME>TEME</REF_FRAME><TIME_SYSTEM>UTC</TIME_SYSTEM><MEAN_ELEMENT_THEORY>SGP4</MEAN_ELEMENT_THEORY></metadata><data><meanElements><EPOCH>2025-10-31T06:14:01.812480</EPOCH><MEAN_MOTION>14.79901667</MEAN_MOTION><ECCENTRICITY>.0007913</ECCENTRICITY><INCLINATION>51.9024</INCLINATION><RA_OF_ASC_NODE>320.4195</RA_OF_ASC_NODE><ARG_OF_PERICENTER>325.2332</ARG_OF_PERICENTER><MEAN_ANOMALY>34.8112</MEAN_ANOMALY></meanElements><tleParameters><EPHEMERIS_TYPE>0</EPHEMERIS_TYPE><CLASSIFICATION_TYPE>U</CLASSIFICATION_TYPE><NORAD_CAT_ID>63729</NORAD_CAT_ID><ELEMENT_SET_NO>999</ELEMENT_SET_NO><REV_AT_EPOCH>2840</REV_AT_EPOCH><BSTAR>.57418924E-3</BSTAR><MEAN_MOTION_DOT>.4156E-4</MEAN_MOTION_DOT><MEAN_MOTION_DDOT>0</MEAN_MOTION_DDOT></tleParameters></data></segment></body></omm>
<omm id="CCSDS_OMM_VERS" version="2.0">
<header><CREATION_DATE/><ORIGINATOR/></header><body><segment><metadata><OBJECT_NAME>KUIPER-00014</OBJECT_NAME><OBJECT_ID>2025-088G</OBJECT_ID><CENTER_NAME>EARTH</CENTER_NAME><REF_FRAME>TEME</REF_FRAME><TIME_SYSTEM>UTC</TIME_SYSTEM><MEAN_ELEMENT_THEORY>SGP4</MEAN_ELEMENT_THEORY></metadata><data><meanElements><EPOCH>2025-10-31T06:11:48.153408</EPOCH><MEAN_MOTION>14.79937215</MEAN_MOTION><ECCENTRICITY>.00089822</ECCENTRICITY><INCLINATION>51.9031</INCLINATION><RA_OF_ASC_NODE>321.3946</RA_OF_ASC_NODE><ARG_OF_PERICENTER>31.1057</ARG_OF_PERICENTER><MEAN_ANOMALY>329.0435</MEAN_ANOMALY></meanElements><tleParameters><EPHEMERIS_TYPE>0</EPHEMERIS_TYPE><CLASSIFICATION_TYPE>U</CLASSIFICATION_TYPE><NORAD_CAT_ID>63730</NORAD_CAT_ID><ELEMENT_SET_NO>999</ELEMENT_SET_NO><REV_AT_EPOCH>2820</REV_AT_EPOCH><BSTAR>.22569571E-2</BSTAR><MEAN_MOTION_DOT>.17039E-3</MEAN_MOTION_DOT><MEAN_MOTION_DDOT>0</MEAN_MOTION_DDOT></tleParameters></data></segment></body></omm>
<omm id="CCSDS_OMM_VERS" version="2.0">
<header><CREATION_DATE/><ORIGINATOR/></header><body><segment><metadata><OBJECT_NAME>KUIPER-00015</OBJECT_NAME><OBJECT_ID>2025-088H</OBJECT_ID><CENTER_NAME>EARTH</CENTER_NAME><REF_FRAME>TEME</REF_FRAME><TIME_SYSTEM>UTC</TIME_SYSTEM><MEAN_ELEMENT_THEORY>SGP4</MEAN_ELEMENT_THEORY></metadata><data><meanElements><EPOCH>2025-10-31T06:47:47.083776</EPOCH><MEAN_MOTION>14.81532921</MEAN_MOTION><ECCENTRICITY>.00102853</ECCENTRICITY><INCLINATION>51.9006</INCLINATION><RA_OF_ASC_NODE>332.8249</RA_OF_ASC_NODE><ARG_OF_PERICENTER>12.1013</ARG_OF_PERICENTER><MEAN_ANOMALY>348.0195</MEAN_ANOMALY></meanElements><tleParameters><EPHEMERIS_TYPE>0</EPHEMERIS_TYPE><CLASSIFICATION_TYPE>U</CLASSIFICATION_TYPE><NORAD_CAT_ID>63731</NORAD_CAT_ID><ELEMENT_SET_NO>999</ELEMENT_SET_NO><REV_AT_EPOCH>2850</REV_AT_EPOCH><BSTAR>.49422154E-3</BSTAR><MEAN_MOTION_DOT>.3693E-4</MEAN_MOTION_DOT><MEAN_MOTION_DDOT>0</MEAN_MOTION_DDOT></tleParameters></data></segment></body></omm>

</ndm>
